{
  "type": "FeatureCollection",
  "features": [
    {
      "type": "Feature",
      "properties": {
        "norad_id": 58647,
        "name": "TIANMU-1 13",
        "group": "weather",
        "lat": -41.69548039134444,
        "lon": -177.17166518041887,
        "alt_km": 495.21880468740983,
        "timestamp": "2025-12-15T20:48:53.528464+00:00",
        "meta_object_name": "TIANMU-1 13",
        "meta_object_id": "2023-205C",
        "meta_epoch": "2025-12-14T23:21:55.451808",
        "meta_mean_motion": 15.24556889,
        "meta_eccentricity": 0.00060604,
        "meta_inclination": 97.3625,
        "meta_ra_of_asc_node": 8.5644,
        "meta_arg_of_pericenter": 257.2191,
        "meta_mean_anomaly": 102.837,
        "meta_ephemeris_type": 0,
        "meta_classification_type": "U",
        "meta_norad_cat_id": 58647,
        "meta_element_set_no": 999,
        "meta_rev_at_epoch": 10941,
        "meta_bstar": 0.00020174549,
        "meta_mean_motion_dot": 4.899e-05,
        "meta_mean_motion_ddot": 0,
        "tle_line1": "1 58647U 23205C   25348.97355847  .00004899  00000+0  20175-3 0  9999",
        "tle_line2": "2 58647  97.3625   8.5644 0006060 257.2191 102.8370 15.24556889109419"
      },
      "geometry": {
        "type": "Point",
        "coordinates": [
          -177.17166518041887,
          -41.69548039134444
        ]
      }
    },
    {
      "type": "Feature",
      "properties": {
        "norad_id": 58648,
        "name": "TIANMU-1 14",
        "group": "weather",
        "lat": -46.60764540043372,
        "lon": 16.642118013100063,
        "alt_km": 496.16361828071604,
        "timestamp": "2025-12-15T20:48:53.528475+00:00",
        "meta_object_name": "TIANMU-1 14",
        "meta_object_id": "2023-205D",
        "meta_epoch": "2025-12-14T22:58:03.261216",
        "meta_mean_motion": 15.24540079,
        "meta_eccentricity": 0.00068361,
        "meta_inclination": 97.3557,
        "meta_ra_of_asc_node": 7.8948,
        "meta_arg_of_pericenter": 263.0659,
        "meta_mean_anomaly": 96.9802,
        "meta_ephemeris_type": 0,
        "meta_classification_type": "U",
        "meta_norad_cat_id": 58648,
        "meta_element_set_no": 999,
        "meta_rev_at_epoch": 10941,
        "meta_bstar": 0.00020824247,
        "meta_mean_motion_dot": 5.057e-05,
        "meta_mean_motion_ddot": 0,
        "tle_line1": "1 58648U 23205D   25348.95698219  .00005057  00000+0  20824-3 0  9999",
        "tle_line2": "2 58648  97.3557   7.8948 0006836 263.0659  96.9802 15.24540079109415"
      },
      "geometry": {
        "type": "Point",
        "coordinates": [
          16.642118013100063,
          -46.60764540043372
        ]
      }
    },
    {
      "type": "Feature",
      "properties": {
        "norad_id": 58660,
        "name": "TIANMU-1 19",
        "group": "weather",
        "lat": -64.556551899984,
        "lon": -95.04141011997082,
        "alt_km": 486.4459867577525,
        "timestamp": "2025-12-15T20:48:53.528485+00:00",
        "meta_object_name": "TIANMU-1 19",
        "meta_object_id": "2023-208A",
        "meta_epoch": "2025-12-14T21:44:17.287296",
        "meta_mean_motion": 15.27896881,
        "meta_eccentricity": 0.00041751,
        "meta_inclination": 97.4385,
        "meta_ra_of_asc_node": 99.9382,
        "meta_arg_of_pericenter": 243.2919,
        "meta_mean_anomaly": 116.7893,
        "meta_ephemeris_type": 0,
        "meta_classification_type": "U",
        "meta_norad_cat_id": 58660,
        "meta_element_set_no": 999,
        "meta_rev_at_epoch": 10915,
        "meta_bstar": 0.00030244403,
        "meta_mean_motion_dot": 8.164e-05,
        "meta_mean_motion_ddot": 0,
        "tle_line1": "1 58660U 23208A   25348.90575564  .00008164  00000+0  30244-3 0  9997",
        "tle_line2": "2 58660  97.4385  99.9382 0004175 243.2919 116.7893 15.27896881109156"
      },
      "geometry": {
        "type": "Point",
        "coordinates": [
          -95.04141011997082,
          -64.556551899984
        ]
      }
    },
    {
      "type": "Feature",
      "properties": {
        "norad_id": 58661,
        "name": "TIANMU-1 20",
        "group": "weather",
        "lat": -26.654631386427823,
        "lon": 105.10542591933523,
        "alt_km": 483.53918491292734,
        "timestamp": "2025-12-15T20:48:53.528495+00:00",
        "meta_object_name": "TIANMU-1 20",
        "meta_object_id": "2023-208B",
        "meta_epoch": "2025-12-14T22:56:39.423840",
        "meta_mean_motion": 15.29085813,
        "meta_eccentricity": 0.00063497,
        "meta_inclination": 97.4323,
        "meta_ra_of_asc_node": 100.4381,
        "meta_arg_of_pericenter": 256.7314,
        "meta_mean_anomaly": 103.3218,
        "meta_ephemeris_type": 0,
        "meta_classification_type": "U",
        "meta_norad_cat_id": 58661,
        "meta_element_set_no": 999,
        "meta_rev_at_epoch": 10923,
        "meta_bstar": 0.00024410755,
        "meta_mean_motion_dot": 6.82e-05,
        "meta_mean_motion_ddot": 0,
        "tle_line1": "1 58661U 23208B   25348.95601185  .00006820  00000+0  24411-3 0  9998",
        "tle_line2": "2 58661  97.4323 100.4381 0006349 256.7314 103.3218 15.29085813109238"
      },
      "geometry": {
        "type": "Point",
        "coordinates": [
          105.10542591933523,
          -26.654631386427823
        ]
      }
    },
    {
      "type": "Feature",
      "properties": {
        "norad_id": 58662,
        "name": "TIANMU-1 21",
        "group": "weather",
        "lat": 6.029276658055686,
        "lon": 102.48029813553259,
        "alt_km": 475.21120269317544,
        "timestamp": "2025-12-15T20:48:53.528505+00:00",
        "meta_object_name": "TIANMU-1 21",
        "meta_object_id": "2023-208C",
        "meta_epoch": "2025-12-14T22:50:11.546592",
        "meta_mean_motion": 15.31604308,
        "meta_eccentricity": 0.00059317,
        "meta_inclination": 97.4371,
        "meta_ra_of_asc_node": 102.352,
        "meta_arg_of_pericenter": 250.8207,
        "meta_mean_anomaly": 109.2393,
        "meta_ephemeris_type": 0,
        "meta_classification_type": "U",
        "meta_norad_cat_id": 58662,
        "meta_element_set_no": 999,
        "meta_rev_at_epoch": 10933,
        "meta_bstar": 0.00026188618,
        "meta_mean_motion_dot": 7.918e-05,
        "meta_mean_motion_ddot": 0,
        "tle_line1": "1 58662U 23208C   25348.95152253  .00007918  00000+0  26189-3 0  9999",
        "tle_line2": "2 58662  97.4371 102.3520 0005931 250.8207 109.2393 15.31604308109339"
      },
      "geometry": {
        "type": "Point",
        "coordinates": [
          102.48029813553259,
          6.029276658055686
        ]
      }
    },
    {
      "type": "Feature",
      "properties": {
        "norad_id": 58663,
        "name": "TIANMU-1 22",
        "group": "weather",
        "lat": -63.02926119997841,
        "lon": -93.92036916267493,
        "alt_km": 488.41620671468536,
        "timestamp": "2025-12-15T20:48:53.528516+00:00",
        "meta_object_name": "TIANMU-1 22",
        "meta_object_id": "2023-208D",
        "meta_epoch": "2025-12-14T21:44:28.793184",
        "meta_mean_motion": 15.27648026,
        "meta_eccentricity": 0.00026667,
        "meta_inclination": 97.4379,
        "meta_ra_of_asc_node": 99.9964,
        "meta_arg_of_pericenter": 275.7738,
        "meta_mean_anomaly": 84.3197,
        "meta_ephemeris_type": 0,
        "meta_classification_type": "U",
        "meta_norad_cat_id": 58663,
        "meta_element_set_no": 999,
        "meta_rev_at_epoch": 10916,
        "meta_bstar": 0.00028113688,
        "meta_mean_motion_dot": 7.524e-05,
        "meta_mean_motion_ddot": 0,
        "tle_line1": "1 58663U 23208D   25348.90588881  .00007524  00000+0  28114-3 0  9998",
        "tle_line2": "2 58663  97.4379  99.9964 0002666 275.7738  84.3197 15.27648026109164"
      },
      "geometry": {
        "type": "Point",
        "coordinates": [
          -93.92036916267493,
          -63.02926119997841
        ]
      }
    },
    {
      "type": "Feature",
      "properties": {
        "norad_id": 58700,
        "name": "TIANMU-1 15",
        "group": "weather",
        "lat": -22.116325568654826,
        "lon": 174.37849621340203,
        "alt_km": 495.6621805144996,
        "timestamp": "2025-12-15T20:48:53.528528+00:00",
        "meta_object_name": "TIANMU-1 15",
        "meta_object_id": "2024-004A",
        "meta_epoch": "2025-12-15T11:27:39.170880",
        "meta_mean_motion": 15.24523095,
        "meta_eccentricity": 0.0005662,
        "meta_inclination": 97.4625,
        "meta_ra_of_asc_node": 170.9368,
        "meta_arg_of_pericenter": 280.1287,
        "meta_mean_anomaly": 79.9311,
        "meta_ephemeris_type": 0,
        "meta_classification_type": "U",
        "meta_norad_cat_id": 58700,
        "meta_element_set_no": 999,
        "meta_rev_at_epoch": 10776,
        "meta_bstar": 0.0001928,
        "meta_mean_motion_dot": 4.672e-05,
        "meta_mean_motion_ddot": 0,
        "tle_line1": "1 58700U 24004A   25349.47753670  .00004672  00000+0  19280-3 0  9993",
        "tle_line2": "2 58700  97.4625 170.9368 0005662 280.1287  79.9311 15.24523095107763"
      },
      "geometry": {
        "type": "Point",
        "coordinates": [
          174.37849621340203,
          -22.116325568654826
        ]
      }
    }
  ]
}